[{"OBJECT_NAME":"STARLINK-31491","OBJECT_ID":"2024-036P","EPOCH":"2026-03-09T06:28:46.954560","MEAN_MOTION":15.30188703,"ECCENTRICITY":0.00012684,"INCLINATION":53.1605,"RA_OF_ASC_NODE":80.4539,"ARG_OF_PERICENTER":93.1729,"MEAN_ANOMALY":266.9417,"EPHEMERIS_TYPE":0,"CLASSIFICATION_TYPE":"U","NORAD_CAT_ID":59011,"ELEMENT_SET_NO":999,"REV_AT_EPOCH":11525,"BSTAR":4.0748234e-5,"MEAN_MOTION_DOT":8.47e-6,"MEAN_MOTION_DDOT":0},{"OBJECT_NAME":"SCS-01 M","OBJECT_ID":"2025-100M","EPOCH":"2026-03-09T23:50:15.541152","MEAN_MOTION":15.31880861,"ECCENTRICITY":0.00078021,"INCLINATION":97.3725,"RA_OF_ASC_NODE":145.6908,"ARG_OF_PERICENTER":292.3826,"MEAN_ANOMALY":67.6588,"EPHEMERIS_TYPE":0,"CLASSIFICATION_TYPE":"U","NORAD_CAT_ID":63993,"ELEMENT_SET_NO":999,"REV_AT_EPOCH":4565,"BSTAR":0.0012010051,"MEAN_MOTION_DOT":0.00037061,"MEAN_MOTION_DDOT":0}]
